start=new Date('2021-10-22T00:00:00.000Z').valueOf();
sats=[{"ECCENTRICITY":"0.00011310","RCS_SIZE":"LARGE","OBJECT_NAME":"STARLINK-1238","CENTER_NAME":"EARTH","PERIOD":"95.592","APOAPSIS":"548.007","MEAN_MOTION_DOT":"-0.00001856","TLE_LINE1":"1 45233U 20012BH  21294.46547601 -.00001856  00000-0 -10578-3 0  9999","REV_AT_EPOCH":"9391","RA_OF_ASC_NODE":"10.2949","TIME_SYSTEM":"UTC","EPHEMERIS_TYPE":"0","LAUNCH_DATE":"2020-02-17","SEMIMAJOR_AXIS":"6925.359","EPOCH":"2021-10-21T11:10:17.127264","PERIAPSIS":"546.440","ELEMENT_SET_NO":"999","DECAY_DATE":null,"MEAN_MOTION":"15.06396753","TLE_LINE2":"2 45233  53.0572  10.2949 0001131  87.7085 272.4033 15.06396753 93915","ARG_OF_PERICENTER":"87.7085","NORAD_CAT_ID":"45233","COUNTRY_CODE":"US","OBJECT_TYPE":"PAYLOAD","CLASSIFICATION_TYPE":"U","INCLINATION":"53.0572","BSTAR":"-0.00010578000000","REF_FRAME":"TEME","MEAN_ELEMENT_THEORY":"SGP4","FILE":"3176553","SITE":"AFETR","MEAN_ANOMALY":"272.4033","OBJECT_ID":"2020-012BH","MEAN_MOTION_DDOT":"0.0000000000000","GP_ID":"187808251"},{"BSTAR":"-0.00008781000000","INCLINATION":"53.0549","MEAN_ELEMENT_THEORY":"SGP4","REF_FRAME":"TEME","OBJECT_TYPE":"PAYLOAD","COUNTRY_CODE":"US","NORAD_CAT_ID":"45234","CLASSIFICATION_TYPE":"U","MEAN_MOTION_DDOT":"0.0000000000000","GP_ID":"187838649","MEAN_ANOMALY":"269.7896","SITE":"AFETR","FILE":"3176920","OBJECT_ID":"2020-012BJ","OBJECT_NAME":"STARLINK-1243","PERIOD":"95.593","CENTER_NAME":"EARTH","ECCENTRICITY":"0.00012840","RCS_SIZE":"LARGE","ELEMENT_SET_NO":"999","PERIAPSIS":"546.354","EPOCH":"2021-10-21T15:17:05.073792","LAUNCH_DATE":"2020-02-17","SEMIMAJOR_AXIS":"6925.379","ARG_OF_PERICENTER":"90.3240","TLE_LINE2":"2 45234  53.0549  29.5358 0001284  90.3240 269.7896 15.06390163 93644","MEAN_MOTION":"15.06390163","DECAY_DATE":null,"REV_AT_EPOCH":"9364","TLE_LINE1":"1 45234U 20012BJ  21294.63686428 -.00001589  00000-0 -87810-4 0  9997","APOAPSIS":"548.133","MEAN_MOTION_DOT":"-0.00001589","TIME_SYSTEM":"UTC","EPHEMERIS_TYPE":"0","RA_OF_ASC_NODE":"29.5358"},{"OBJECT_NAME":"STARLINK-1246","PERIOD":"95.592","CENTER_NAME":"EARTH","ECCENTRICITY":"0.00013610","RCS_SIZE":"LARGE","PERIAPSIS":"546.278","ELEMENT_SET_NO":"999","EPOCH":"2021-10-21T18:06:56.340000","LAUNCH_DATE":"2020-02-17","SEMIMAJOR_AXIS":"6925.356","ARG_OF_PERICENTER":"99.4271","TLE_LINE2":"2 45235  53.0565  29.0122 0001361  99.4271 260.6872 15.06397677 93716","MEAN_MOTION":"15.06397677","DECAY_DATE":null,"TLE_LINE1":"1 45235U 20012BK  21294.75481875 -.00001649  00000-0 -91817-4 0  9999","REV_AT_EPOCH":"9371","APOAPSIS":"548.163","MEAN_MOTION_DOT":"-0.00001649","RA_OF_ASC_NODE":"29.0122","EPHEMERIS_TYPE":"0","TIME_SYSTEM":"UTC","INCLINATION":"53.0565","BSTAR":"-0.00009181700000","MEAN_ELEMENT_THEORY":"SGP4","REF_FRAME":"TEME","OBJECT_TYPE":"PAYLOAD","NORAD_CAT_ID":"45235","COUNTRY_CODE":"US","CLASSIFICATION_TYPE":"U","MEAN_MOTION_DDOT":"0.0000000000000","GP_ID":"187838894","MEAN_ANOMALY":"260.6872","FILE":"3176920","SITE":"AFETR","OBJECT_ID":"2020-012BK"},{"OBJECT_ID":"2020-012BL","FILE":"3176920","SITE":"AFETR","MEAN_ANOMALY":"269.9265","GP_ID":"187838147","MEAN_MOTION_DDOT":"0.0000000000000","CLASSIFICATION_TYPE":"U","NORAD_CAT_ID":"45236","COUNTRY_CODE":"US","OBJECT_TYPE":"PAYLOAD","REF_FRAME":"TEME","MEAN_ELEMENT_THEORY":"SGP4","INCLINATION":"53.0548","BSTAR":"-0.00012763000000","RA_OF_ASC_NODE":"349.3921","EPHEMERIS_TYPE":"0","TIME_SYSTEM":"UTC","APOAPSIS":"547.955","MEAN_MOTION_DOT":"-0.00002182","TLE_LINE1":"1 45236U 20012BL  21294.67003666 -.00002182  00000-0 -12763-3 0  9994","REV_AT_EPOCH":"9423","DECAY_DATE":null,"ARG_OF_PERICENTER":"90.1844","TLE_LINE2":"2 45236  53.0548 349.3921 0001049  90.1844 269.9265 15.06395041 94239","MEAN_MOTION":"15.06395041","LAUNCH_DATE":"2020-02-17","SEMIMAJOR_AXIS":"6925.364","EPOCH":"2021-10-21T16:04:51.167424","ELEMENT_SET_NO":"999","PERIAPSIS":"546.502","RCS_SIZE":"LARGE","ECCENTRICITY":"0.00010490","CENTER_NAME":"EARTH","PERIOD":"95.592","OBJECT_NAME":"STARLINK-1247"},{"TIME_SYSTEM":"UTC","EPHEMERIS_TYPE":"0","RA_OF_ASC_NODE":"350.4883","MEAN_MOTION_DOT":"-0.00000265","APOAPSIS":"548.095","TLE_LINE1":"1 45237U 20012BM  21294.42675651 -.00000265  00000-0  10959-5 0  9993","REV_AT_EPOCH":"9420","DECAY_DATE":null,"ARG_OF_PERICENTER":"98.5460","TLE_LINE2":"2 45237  53.0564 350.4883 0001241  98.5460 261.5669 15.06392863 94200","MEAN_MOTION":"15.06392863","SEMIMAJOR_AXIS":"6925.370","LAUNCH_DATE":"2020-02-17","EPOCH":"2021-10-21T10:14:31.762464","PERIAPSIS":"546.376","ELEMENT_SET_NO":"999","RCS_SIZE":"LARGE","ECCENTRICITY":"0.00012410","CENTER_NAME":"EARTH","PERIOD":"95.593","OBJECT_NAME":"STARLINK-1270","OBJECT_ID":"2020-012BM","SITE":"AFETR","FILE":"3176553","MEAN_ANOMALY":"261.5669","GP_ID":"187808751","MEAN_MOTION_DDOT":"0.0000000000000","CLASSIFICATION_TYPE":"U","COUNTRY_CODE":"US","NORAD_CAT_ID":"45237","OBJECT_TYPE":"PAYLOAD","REF_FRAME":"TEME","MEAN_ELEMENT_THEORY":"SGP4","BSTAR":"0.00000109590000","INCLINATION":"53.0564"},{"MEAN_ELEMENT_THEORY":"SGP4","REF_FRAME":"TEME","INCLINATION":"53.0539","BSTAR":"0.00009672400000","CLASSIFICATION_TYPE":"U","OBJECT_TYPE":"PAYLOAD","NORAD_CAT_ID":"45360","COUNTRY_CODE":"US","GP_ID":"187838161","MEAN_MOTION_DDOT":"0.0000000000000","OBJECT_ID":"2020-019A","MEAN_ANOMALY":"268.6812","FILE":"3176920","SITE":"AFETR","PERIOD":"95.592","CENTER_NAME":"EARTH","OBJECT_NAME":"STARLINK-1279","RCS_SIZE":"LARGE","ECCENTRICITY":"0.00017030","MEAN_MOTION":"15.06408563","TLE_LINE2":"2 45360  53.0539 119.4726 0001703  91.4372 268.6812 15.06408563 88975","ARG_OF_PERICENTER":"91.4372","DECAY_DATE":null,"PERIAPSIS":"546.008","ELEMENT_SET_NO":"999","SEMIMAJOR_AXIS":"6925.322","LAUNCH_DATE":"2020-03-18","EPOCH":"2021-10-21T15:36:59.376672","RA_OF_ASC_NODE":"119.4726","EPHEMERIS_TYPE":"0","TIME_SYSTEM":"UTC","TLE_LINE1":"1 45360U 20019A   21294.65068723  .00001160  00000-0  96724-4 0  9995","REV_AT_EPOCH":"8897","APOAPSIS":"548.367","MEAN_MOTION_DOT":"0.00001160"},{"TLE_LINE2":"2 45361  53.0526 128.3356 0001418  88.5384 271.5767 15.06411095 88889","MEAN_MOTION":"15.06411095","ARG_OF_PERICENTER":"88.5384","DECAY_DATE":null,"ELEMENT_SET_NO":"999","PERIAPSIS":"546.198","EPOCH":"2021-10-21T21:41:53.490912","LAUNCH_DATE":"2020-03-18","SEMIMAJOR_AXIS":"6925.315","TIME_SYSTEM":"UTC","EPHEMERIS_TYPE":"0","RA_OF_ASC_NODE":"128.3356","TLE_LINE1":"1 45361U 20019B   21294.90409133  .00001949  00000-0  14967-3 0  9991","REV_AT_EPOCH":"8888","APOAPSIS":"548.162","MEAN_MOTION_DOT":"0.00001949","PERIOD":"95.591","CENTER_NAME":"EARTH","OBJECT_NAME":"STARLINK-1301","RCS_SIZE":"LARGE","ECCENTRICITY":"0.00014180","GP_ID":"187837912","MEAN_MOTION_DDOT":"0.0000000000000","OBJECT_ID":"2020-019B","MEAN_ANOMALY":"271.5767","SITE":"AFETR","FILE":"3176920","MEAN_ELEMENT_THEORY":"SGP4","REF_FRAME":"TEME","BSTAR":"0.00014967000000","INCLINATION":"53.0526","CLASSIFICATION_TYPE":"U","OBJECT_TYPE":"PAYLOAD","COUNTRY_CODE":"US","NORAD_CAT_ID":"45361"},{"REV_AT_EPOCH":"8859","TLE_LINE1":"1 45362U 20019C   21294.88381172  .00001201  00000-0  99532-4 0  9994","APOAPSIS":"548.469","MEAN_MOTION_DOT":"0.00001201","RA_OF_ASC_NODE":"148.4273","TIME_SYSTEM":"UTC","EPHEMERIS_TYPE":"0","PERIAPSIS":"545.965","ELEMENT_SET_NO":"999","LAUNCH_DATE":"2020-03-18","EPOCH":"2021-10-21T21:12:41.332608","SEMIMAJOR_AXIS":"6925.352","ARG_OF_PERICENTER":"81.5021","TLE_LINE2":"2 45362  53.0536 148.4273 0001808  81.5021 278.6173 15.06398931 88596","MEAN_MOTION":"15.06398931","DECAY_DATE":null,"ECCENTRICITY":"0.00018080","RCS_SIZE":"LARGE","OBJECT_NAME":"STARLINK-1306","PERIOD":"95.592","CENTER_NAME":"EARTH","MEAN_ANOMALY":"278.6173","FILE":"3176920","SITE":"AFETR","OBJECT_ID":"2020-019C","MEAN_MOTION_DDOT":"0.0000000000000","GP_ID":"187839163","OBJECT_TYPE":"PAYLOAD","NORAD_CAT_ID":"45362","COUNTRY_CODE":"US","CLASSIFICATION_TYPE":"U","INCLINATION":"53.0536","BSTAR":"0.00009953200000","MEAN_ELEMENT_THEORY":"SGP4","REF_FRAME":"TEME"},{"REV_AT_EPOCH":"8897","TLE_LINE1":"1 45364U 20019E   21294.64698804  .00000545  00000-0  55460-4 0  9995","APOAPSIS":"548.270","MEAN_MOTION_DOT":"0.00000545","RA_OF_ASC_NODE":"119.4932","EPHEMERIS_TYPE":"0","TIME_SYSTEM":"UTC","PERIAPSIS":"546.160","ELEMENT_SET_NO":"999","SEMIMAJOR_AXIS":"6925.350","LAUNCH_DATE":"2020-03-18","EPOCH":"2021-10-21T15:31:39.766656","TLE_LINE2":"2 45364  53.0541 119.4932 0001523  89.2917 270.8247 15.06399466 88979","ARG_OF_PERICENTER":"89.2917","MEAN_MOTION":"15.06399466","DECAY_DATE":null,"ECCENTRICITY":"0.00015230","RCS_SIZE":"LARGE","OBJECT_NAME":"STARLINK-1313","PERIOD":"95.592","CENTER_NAME":"EARTH","MEAN_ANOMALY":"270.8247","FILE":"3176920","SITE":"AFETR","OBJECT_ID":"2020-019E","MEAN_MOTION_DDOT":"0.0000000000000","GP_ID":"187839408","OBJECT_TYPE":"PAYLOAD","NORAD_CAT_ID":"45364","COUNTRY_CODE":"US","CLASSIFICATION_TYPE":"U","INCLINATION":"53.0541","BSTAR":"0.00005546000000","MEAN_ELEMENT_THEORY":"SGP4","REF_FRAME":"TEME"},{"BSTAR":"-0.00001514000000","INCLINATION":"53.0017","MEAN_ELEMENT_THEORY":"SGP4","REF_FRAME":"TEME","OBJECT_TYPE":"PAYLOAD","COUNTRY_CODE":"US","NORAD_CAT_ID":"45365","CLASSIFICATION_TYPE":"U","MEAN_MOTION_DDOT":"0.0000000000000","GP_ID":"187837662","MEAN_ANOMALY":"266.7313","SITE":"AFETR","FILE":"3176920","OBJECT_ID":"2020-019F","OBJECT_NAME":"STARLINK-1317","PERIOD":"95.645","CENTER_NAME":"EARTH","ECCENTRICITY":"0.00019350","RCS_SIZE":"LARGE","PERIAPSIS":"548.442","ELEMENT_SET_NO":"999","EPOCH":"2021-10-21T20:35:34.821024","LAUNCH_DATE":"2020-03-18","SEMIMAJOR_AXIS":"6927.917","TLE_LINE2":"2 45365  53.0017 128.5421 0001935  93.3896 266.7313 15.05562217 88840","MEAN_MOTION":"15.05562217","ARG_OF_PERICENTER":"93.3896","DECAY_DATE":null,"TLE_LINE1":"1 45365U 20019F   21294.85804191 -.00000500  00000-0 -15140-4 0  9991","REV_AT_EPOCH":"8884","APOAPSIS":"551.123","MEAN_MOTION_DOT":"-0.00000500","TIME_SYSTEM":"UTC","EPHEMERIS_TYPE":"0","RA_OF_ASC_NODE":"128.5421"}];
